<?xml version="1.0" encoding="UTF-8"?>
<gpx version="1.1" creator="crewcue-fixtures" xmlns="http://www.topografix.com/GPX/1/1">

  <trk>
    <name>Long trail ultra history</name>
    <trkseg>
      <trkpt lat="39.200000" lon="-120.400000"><ele>600.0</ele><time>2026-06-01T14:00:00Z</time></trkpt>
      <trkpt lat="39.204492" lon="-120.400000"><ele>775.6</ele><time>2026-06-01T14:04:00Z</time></trkpt>
      <trkpt lat="39.208983" lon="-120.400000"><ele>944.4</ele><time>2026-06-01T14:08:00Z</time></trkpt>
      <trkpt lat="39.213475" lon="-120.400000"><ele>1100.0</ele><time>2026-06-01T14:12:00Z</time></trkpt>
      <trkpt lat="39.217966" lon="-120.400000"><ele>1236.4</ele><time>2026-06-01T14:16:00Z</time></trkpt>
      <trkpt lat="39.222458" lon="-120.400000"><ele>1348.3</ele><time>2026-06-01T14:20:00Z</time></trkpt>
      <trkpt lat="39.226949" lon="-120.400000"><ele>1431.5</ele><time>2026-06-01T14:24:00Z</time></trkpt>
      <trkpt lat="39.231441" lon="-120.400000"><ele>1482.7</ele><time>2026-06-01T14:28:00Z</time></trkpt>
      <trkpt lat="39.235932" lon="-120.400000"><ele>1500.0</ele><time>2026-06-01T14:32:00Z</time></trkpt>
      <trkpt lat="39.240424" lon="-120.400000"><ele>1482.7</ele><time>2026-06-01T14:36:00Z</time></trkpt>
      <trkpt lat="39.244916" lon="-120.400000"><ele>1431.5</ele><time>2026-06-01T14:40:00Z</time></trkpt>
      <trkpt lat="39.249407" lon="-120.400000"><ele>1348.3</ele><time>2026-06-01T14:44:00Z</time></trkpt>
      <trkpt lat="39.253899" lon="-120.400000"><ele>1236.4</ele><time>2026-06-01T14:48:00Z</time></trkpt>
      <trkpt lat="39.258390" lon="-120.400000"><ele>1100.0</ele><time>2026-06-01T14:52:00Z</time></trkpt>
      <trkpt lat="39.262882" lon="-120.400000"><ele>944.4</ele><time>2026-06-01T14:56:00Z</time></trkpt>
      <trkpt lat="39.267373" lon="-120.400000"><ele>775.6</ele><time>2026-06-01T15:00:00Z</time></trkpt>
      <trkpt lat="39.271865" lon="-120.400000"><ele>600.0</ele><time>2026-06-01T15:04:00Z</time></trkpt>
      <trkpt lat="39.276356" lon="-120.400000"><ele>424.4</ele><time>2026-06-01T15:08:00Z</time></trkpt>
      <trkpt lat="39.280848" lon="-120.400000"><ele>255.6</ele><time>2026-06-01T15:12:00Z</time></trkpt>
      <trkpt lat="39.285340" lon="-120.400000"><ele>100.0</ele><time>2026-06-01T15:16:00Z</time></trkpt>
      <trkpt lat="39.289831" lon="-120.400000"><ele>-36.4</ele><time>2026-06-01T15:20:00Z</time></trkpt>
      <trkpt lat="39.294323" lon="-120.400000"><ele>-148.3</ele><time>2026-06-01T15:24:00Z</time></trkpt>
      <trkpt lat="39.298814" lon="-120.400000"><ele>-231.5</ele><time>2026-06-01T15:28:00Z</time></trkpt>
      <trkpt lat="39.303306" lon="-120.400000"><ele>-282.7</ele><time>2026-06-01T15:32:00Z</time></trkpt>
      <trkpt lat="39.307797" lon="-120.400000"><ele>-300.0</ele><time>2026-06-01T15:36:00Z</time></trkpt>
      <trkpt lat="39.312289" lon="-120.400000"><ele>-282.7</ele><time>2026-06-01T15:40:00Z</time></trkpt>
      <trkpt lat="39.316780" lon="-120.400000"><ele>-231.5</ele><time>2026-06-01T15:44:00Z</time></trkpt>
      <trkpt lat="39.321272" lon="-120.400000"><ele>-148.3</ele><time>2026-06-01T15:48:00Z</time></trkpt>
      <trkpt lat="39.325764" lon="-120.400000"><ele>-36.4</ele><time>2026-06-01T15:52:00Z</time></trkpt>
      <trkpt lat="39.330255" lon="-120.400000"><ele>100.0</ele><time>2026-06-01T15:56:00Z</time></trkpt>
      <trkpt lat="39.334747" lon="-120.400000"><ele>255.6</ele><time>2026-06-01T16:00:00Z</time></trkpt>
      <trkpt lat="39.339238" lon="-120.400000"><ele>424.4</ele><time>2026-06-01T16:04:00Z</time></trkpt>
      <trkpt lat="39.343730" lon="-120.400000"><ele>600.0</ele><time>2026-06-01T16:08:00Z</time></trkpt>
      <trkpt lat="39.348221" lon="-120.400000"><ele>775.6</ele><time>2026-06-01T16:12:00Z</time></trkpt>
      <trkpt lat="39.352713" lon="-120.400000"><ele>944.4</ele><time>2026-06-01T16:16:00Z</time></trkpt>
      <trkpt lat="39.357204" lon="-120.400000"><ele>1100.0</ele><time>2026-06-01T16:20:00Z</time></trkpt>
      <trkpt lat="39.361696" lon="-120.400000"><ele>1236.4</ele><time>2026-06-01T16:24:00Z</time></trkpt>
      <trkpt lat="39.366188" lon="-120.400000"><ele>1348.3</ele><time>2026-06-01T16:28:00Z</time></trkpt>
      <trkpt lat="39.370679" lon="-120.400000"><ele>1431.5</ele><time>2026-06-01T16:32:00Z</time></trkpt>
      <trkpt lat="39.375171" lon="-120.400000"><ele>1482.7</ele><time>2026-06-01T16:36:00Z</time></trkpt>
      <trkpt lat="39.379662" lon="-120.400000"><ele>1500.0</ele><time>2026-06-01T16:40:00Z</time></trkpt>
      <trkpt lat="39.384154" lon="-120.400000"><ele>1482.7</ele><time>2026-06-01T16:44:00Z</time></trkpt>
      <trkpt lat="39.388645" lon="-120.400000"><ele>1431.5</ele><time>2026-06-01T16:48:00Z</time></trkpt>
      <trkpt lat="39.393137" lon="-120.400000"><ele>1348.3</ele><time>2026-06-01T16:52:00Z</time></trkpt>
      <trkpt lat="39.397628" lon="-120.400000"><ele>1236.4</ele><time>2026-06-01T16:56:00Z</time></trkpt>
      <trkpt lat="39.402120" lon="-120.400000"><ele>1100.0</ele><time>2026-06-01T17:00:00Z</time></trkpt>
      <trkpt lat="39.406612" lon="-120.400000"><ele>944.4</ele><time>2026-06-01T17:04:00Z</time></trkpt>
      <trkpt lat="39.411103" lon="-120.400000"><ele>775.6</ele><time>2026-06-01T17:08:00Z</time></trkpt>
      <trkpt lat="39.415595" lon="-120.400000"><ele>600.0</ele><time>2026-06-01T17:12:00Z</time></trkpt>
      <trkpt lat="39.420086" lon="-120.400000"><ele>424.4</ele><time>2026-06-01T17:16:00Z</time></trkpt>
      <trkpt lat="39.424578" lon="-120.400000"><ele>255.6</ele><time>2026-06-01T17:20:00Z</time></trkpt>
      <trkpt lat="39.429069" lon="-120.400000"><ele>100.0</ele><time>2026-06-01T17:24:00Z</time></trkpt>
      <trkpt lat="39.433561" lon="-120.400000"><ele>-36.4</ele><time>2026-06-01T17:28:00Z</time></trkpt>
      <trkpt lat="39.438052" lon="-120.400000"><ele>-148.3</ele><time>2026-06-01T17:32:00Z</time></trkpt>
      <trkpt lat="39.442544" lon="-120.400000"><ele>-231.5</ele><time>2026-06-01T17:36:00Z</time></trkpt>
      <trkpt lat="39.447036" lon="-120.400000"><ele>-282.7</ele><time>2026-06-01T17:40:00Z</time></trkpt>
      <trkpt lat="39.451527" lon="-120.400000"><ele>-300.0</ele><time>2026-06-01T17:44:00Z</time></trkpt>
      <trkpt lat="39.456019" lon="-120.400000"><ele>-282.7</ele><time>2026-06-01T17:48:00Z</time></trkpt>
      <trkpt lat="39.460510" lon="-120.400000"><ele>-231.5</ele><time>2026-06-01T17:52:00Z</time></trkpt>
      <trkpt lat="39.465002" lon="-120.400000"><ele>-148.3</ele><time>2026-06-01T17:56:00Z</time></trkpt>
      <trkpt lat="39.469493" lon="-120.400000"><ele>-36.4</ele><time>2026-06-01T18:00:00Z</time></trkpt>
      <trkpt lat="39.473985" lon="-120.400000"><ele>100.0</ele><time>2026-06-01T18:04:00Z</time></trkpt>
      <trkpt lat="39.478476" lon="-120.400000"><ele>255.6</ele><time>2026-06-01T18:08:00Z</time></trkpt>
      <trkpt lat="39.482968" lon="-120.400000"><ele>424.4</ele><time>2026-06-01T18:12:00Z</time></trkpt>
      <trkpt lat="39.487460" lon="-120.400000"><ele>600.0</ele><time>2026-06-01T18:16:00Z</time></trkpt>
      <trkpt lat="39.491951" lon="-120.400000"><ele>775.6</ele><time>2026-06-01T18:20:00Z</time></trkpt>
      <trkpt lat="39.496443" lon="-120.400000"><ele>944.4</ele><time>2026-06-01T18:24:00Z</time></trkpt>
      <trkpt lat="39.500934" lon="-120.400000"><ele>1100.0</ele><time>2026-06-01T18:28:00Z</time></trkpt>
      <trkpt lat="39.505426" lon="-120.400000"><ele>1236.4</ele><time>2026-06-01T18:32:00Z</time></trkpt>
      <trkpt lat="39.509917" lon="-120.400000"><ele>1348.3</ele><time>2026-06-01T18:36:00Z</time></trkpt>
      <trkpt lat="39.514409" lon="-120.400000"><ele>1431.5</ele><time>2026-06-01T18:40:00Z</time></trkpt>
      <trkpt lat="39.518900" lon="-120.400000"><ele>1482.7</ele><time>2026-06-01T18:44:00Z</time></trkpt>
      <trkpt lat="39.523392" lon="-120.400000"><ele>1500.0</ele><time>2026-06-01T18:48:00Z</time></trkpt>
      <trkpt lat="39.527884" lon="-120.400000"><ele>1482.7</ele><time>2026-06-01T18:52:00Z</time></trkpt>
      <trkpt lat="39.532375" lon="-120.400000"><ele>1431.5</ele><time>2026-06-01T18:56:00Z</time></trkpt>
      <trkpt lat="39.536867" lon="-120.400000"><ele>1348.3</ele><time>2026-06-01T19:00:00Z</time></trkpt>
      <trkpt lat="39.541358" lon="-120.400000"><ele>1236.4</ele><time>2026-06-01T19:04:00Z</time></trkpt>
      <trkpt lat="39.545850" lon="-120.400000"><ele>1100.0</ele><time>2026-06-01T19:08:00Z</time></trkpt>
      <trkpt lat="39.550341" lon="-120.400000"><ele>944.4</ele><time>2026-06-01T19:12:00Z</time></trkpt>
      <trkpt lat="39.554833" lon="-120.400000"><ele>775.6</ele><time>2026-06-01T19:16:00Z</time></trkpt>
      <trkpt lat="39.559324" lon="-120.400000"><ele>600.0</ele><time>2026-06-01T19:20:00Z</time></trkpt>
      <trkpt lat="39.563816" lon="-120.400000"><ele>424.4</ele><time>2026-06-01T19:24:00Z</time></trkpt>
      <trkpt lat="39.568308" lon="-120.400000"><ele>255.6</ele><time>2026-06-01T19:28:00Z</time></trkpt>
      <trkpt lat="39.572799" lon="-120.400000"><ele>100.0</ele><time>2026-06-01T19:32:00Z</time></trkpt>
      <trkpt lat="39.577291" lon="-120.400000"><ele>-36.4</ele><time>2026-06-01T19:36:00Z</time></trkpt>
      <trkpt lat="39.581782" lon="-120.400000"><ele>-148.3</ele><time>2026-06-01T19:40:00Z</time></trkpt>
      <trkpt lat="39.586274" lon="-120.400000"><ele>-231.5</ele><time>2026-06-01T19:44:00Z</time></trkpt>
      <trkpt lat="39.590765" lon="-120.400000"><ele>-282.7</ele><time>2026-06-01T19:48:00Z</time></trkpt>
      <trkpt lat="39.595257" lon="-120.400000"><ele>-300.0</ele><time>2026-06-01T19:52:00Z</time></trkpt>
      <trkpt lat="39.599748" lon="-120.400000"><ele>-282.7</ele><time>2026-06-01T19:56:00Z</time></trkpt>
      <trkpt lat="39.604240" lon="-120.400000"><ele>-231.5</ele><time>2026-06-01T20:00:00Z</time></trkpt>
    </trkseg>
  </trk>
</gpx>
